CUBEBUG-2 (LO-74)       
1 39440U 13066AA  26163.10615375  .00003560  00000+0  33078-3 0  9999
2 39440  97.8899 112.0627 0058835  45.4296 315.1704 14.93719997676234
FUNCUBE-1 (AO-73)       
1 39444U 13066AE  26162.55441071  .00005554  00000+0  34659-3 0  9992
2 39444  97.8262 133.8824 0035145 220.5848 139.2760 15.09420112678819
UWE-3                   
1 39446U 13066AG  26163.13573377  .00003881  00000+0  33490-3 0  9997
2 39446  97.8685 119.1754 0048384 337.9984  21.9160 14.96983655676823
UNISAT-6                
1 40012U 14033C   26163.22513884  .00003057  00000+0  33075-3 0  9994
2 40012  97.7868 316.0249 0046404  85.2334 275.4179 14.88220526645426
DUCHIFAT-1              
1 40021U 14033M   26163.09548070  .00095136  00000+0  10168-2 0  9990
2 40021  98.0477 221.5443 0003958 124.7307 235.4323 15.63580933654958
QB50P1                  
1 40025U 14033R   26163.27290574  .00008177  00000+0  40334-3 0  9995
2 40025  98.0962 174.0743 0007350 234.6928 125.3617 15.18187953652288
LILACSAT-2              
1 40908U 15049K   26163.17664920  .00016565  00000+0  28384-3 0  9993
2 40908  97.4657 199.8278 0005286 269.0958  90.9688 15.51281361594972
FOX-1A (AO-85)          
1 40967U 15058D   26162.71824684  .00002264  00000+0  20997-3 0  9995
2 40967  64.7758 295.9784 0130128  58.7261 302.6519 14.90943463112758
CAS-2T & KS-1Q          
1 41847U 16066G   26163.18452981  .00001632  00000+0  23593-3 0  9995
2 41847  98.3821 238.9779 0342627 144.6097 217.8365 14.44678480504071
RADFXSAT (FOX-1B)       
1 43017U 17073E   26163.18070044  .00010038  00000+0  43795-3 0  9997
2 43017  97.4717  30.4982 0150347 346.5871  13.1381 15.12639688464631
DIWATA-2B               
1 43678U 18084H   26163.23494414  .00002189  00000+0  17908-3 0  9995
2 43678  98.1180 359.2284 0012241 186.2057 173.9016 15.00428405415476
ES'HAIL 2               
1 43700U 18090A   26163.26991273  .00000159  00000+0  00000+0 0  9992
2 43700   0.0182 327.8391 0001533 149.5732 266.1744  1.00268282 27629
FOX-1CLIFF (AO-95)      
1 43770U 18099N   26163.16185761  .00012073  00000+0  46305-3 0  9994
2 43770  97.4395 223.4266 0008513  16.6170 343.5346 15.26608215412453
ITASAT                  
1 43786U 18099AE  26163.08115618  .00006413  00000+0  30911-3 0  9993
2 43786  97.4034 214.6947 0012663  18.3409 341.8279 15.18993689412137
JY1SAT (JO-97)          
1 43803U 18099AX  26163.13681758  .00015570  00000+0  48284-3 0  9998
2 43803  97.4133 225.9535 0004126 287.1205  72.9585 15.33493153412859
UWE-4                   
1 43880U 18111E   26163.03704896  .00037924  00000+0  78108-3 0  9991
2 43880  97.5852  91.1918 0006446   4.5905 355.5402 15.45812047409984
TIANYAN 01              
1 44881U 19093C   26163.26554447  .00000214  00000+0  30201-4 0  9998
2 44881  97.7533 235.6173 0014961 101.3833 258.9064 14.86509371350688
RS-44 & BREEZE-KM R/B   
1 44909U 19096E   26163.23612107  .00000031  00000+0  75545-4 0  9994
2 44909  82.5218 342.9956 0217970 155.7087 205.4479 12.79748788301715
SALSAT                  
1 46495U 20068K   26163.23969061  .00008047  00000+0  28202-3 0  9993
2 46495  97.8848 166.0033 0008469 328.8216  31.2520 15.29730151314601
XW-3 (CAS-9)            
1 50466U 21131B   26163.26468021  .00000401  00000+0  13761-3 0  9991
2 50466  98.4974 255.6807 0005289 107.7226 252.4541 14.41352915234407
GREENCUBE (IO-117)      
1 53109U 22080E   26152.46502029 -.00000003  00000+0  00000+0 0  9996
2 53109  70.1435 303.7143 0008869 293.3663  66.6064  6.42583280 91055
UMKA 1 (RS40S)          
1 57172U 23091G   26163.09332433  .00005454  00000+0  25026-3 0  9997
2 57172  97.5058 221.8099 0014043 133.5490 226.6915 15.20758521163238
CUBESX-HSE 3 (RS42S)    
1 57178U 23091N   26163.27243601  .00014944  00000+0  49860-3 0  9997
2 57178  97.5100 228.7976 0012125 109.7243 250.5307 15.31092968163679
MONITOR-3 (RS58S)       
1 57180U 23091Q   26163.22062193  .00011285  00000+0  41792-3 0  9991
2 57180  97.5092 226.6300 0013123 116.0548 244.2043 15.27743950163539
MONITOR-4 (RS57S)       
1 57182U 23091S   26163.26545173  .00011149  00000+0  41178-3 0  9998
2 57182  97.5086 226.6462 0013102 116.2107 244.0481 15.27834414163544
MONITOR-2 (RS39S)       
1 57184U 23091U   26163.23996652  .00005511  00000+0  26715-3 0  9995
2 57184  97.5079 221.5545 0012574 126.1672 234.0728 15.18865801163203
SVYATOBOR 1 (RS60S)     
1 57187U 23091X   26163.20878921  .00009731  00000+0  37453-3 0  9992
2 57187  97.5097 226.9981 0010908 109.2791 250.9628 15.26531796163558
VIZARD-METEO (RS38S)    
1 57189U 23091Z   26163.26150292  .00018600  00000+0  53391-3 0  9998
2 57189  97.5100 232.6478 0008545  92.3953 267.8269 15.35872791163939
POLYTECH-UNIVERSE 3 (R*)
1 57191U 23091AB  26163.20194962  .00005073  00000+0  24445-3 0  9995
2 57191  97.5055 221.0215 0016571 142.6851 217.5538 15.19066591163190
UTMN 2 (RS27S)          
1 57203U 23091AP  26163.22739371  .00013744  00000+0  44745-3 0  9999
2 57203  97.5096 230.3797 0009461  98.4428 261.7886 15.31932153163787
