OBJECT_NAME,OBJECT_ID,EPOCH,MEAN_MOTION,ECCENTRICITY,INCLINATION,RA_OF_ASC_NODE,ARG_OF_PERICENTER,MEAN_ANOMALY,EPHEMERIS_TYPE,CLASSIFICATION_TYPE,NORAD_CAT_ID,ELEMENT_SET_NO,REV_AT_EPOCH,BSTAR,MEAN_MOTION_DOT,MEAN_MOTION_DDOT
CUBEBUG-2 (LO-74),2013-066AA,2026-06-12T02:32:51.684000,14.93719997,.00588358,97.8899,112.0627,45.4296,315.1704,0,U,39440,999,67623,.33077531E-3,.356E-4,0
FUNCUBE-1 (AO-73),2013-066AE,2026-06-11T13:18:21.085344,15.09420112,.0035145,97.8262,133.8824,220.5848,139.2760,0,U,39444,999,67881,.34659E-3,.5554E-4,0
UWE-3,2013-066AG,2026-06-12T03:15:27.397728,14.96983655,.00483841,97.8685,119.1754,337.9984,21.9160,0,U,39446,999,67682,.33490485E-3,.3881E-4,0
UNISAT-6,2014-033C,2026-06-12T05:24:11.995776,14.88220526,.00464042,97.7868,316.0249,85.2334,275.4179,0,U,40012,999,64542,.33074572E-3,.3057E-4,0
DUCHIFAT-1,2014-033M,2026-06-12T02:17:29.532480,15.63580933,.00039582,98.0477,221.5443,124.7307,235.4323,0,U,40021,999,65495,.10168386E-2,.95136E-3,0
QB50P1,2014-033R,2026-06-12T06:32:59.055936,15.18187953,.00073508,98.0962,174.0743,234.6928,125.3617,0,U,40025,999,65228,.40334383E-3,.8177E-4,0
LILACSAT-2,2015-049K,2026-06-12T04:14:22.490880,15.51281361,.00052862,97.4657,199.8278,269.0958,90.9688,0,U,40908,999,59497,.28384192E-3,.16565E-3,0
FOX-1A (AO-85),2015-058D,2026-06-11T17:14:16.526976,14.90943463,.0130128,64.7758,295.9784,58.7261,302.6519,0,U,40967,999,11275,.20996848E-3,.2264E-4,0
CAS-2T & KS-1Q,2016-066G,2026-06-12T04:25:43.375584,14.44678480,.03426276,98.3821,238.9779,144.6097,217.8365,0,U,41847,999,50407,.23592923E-3,.1632E-4,0
RADFXSAT (FOX-1B),2017-073E,2026-06-12T04:20:12.518016,15.12639688,.01503473,97.4717,30.4982,346.5871,13.1381,0,U,43017,999,46463,.43794622E-3,.10038E-3,0
DIWATA-2B,2018-084H,2026-06-12T05:38:19.173696,15.00428405,.00122411,98.1180,359.2284,186.2057,173.9016,0,U,43678,999,41547,.17907893E-3,.2189E-4,0
ES'HAIL 2,2018-090A,2026-06-12T06:28:40.459872,1.00268282,.00015333,0.0182,327.8391,149.5732,266.1744,0,U,43700,999,2762,0,.159E-5,0
FOX-1CLIFF (AO-95),2018-099N,2026-06-12T03:53:04.497504,15.26608215,.00085134,97.4395,223.4266,16.6170,343.5346,0,U,43770,999,41245,.46305131E-3,.12073E-3,0
ITASAT,2018-099AE,2026-06-12T01:56:51.893952,15.18993689,.00126633,97.4034,214.6947,18.3409,341.8279,0,U,43786,999,41213,.30910923E-3,.6413E-4,0
JY1SAT (JO-97),2018-099AX,2026-06-12T03:17:01.038912,15.33493153,.00041268,97.4133,225.9535,287.1205,72.9585,0,U,43803,999,41285,.48284335E-3,.1557E-3,0
UWE-4,2018-111E,2026-06-12T00:53:21.030144,15.45812047,.00064463,97.5852,91.1918,4.5905,355.5402,0,U,43880,999,40998,.78107874E-3,.37924E-3,0
TIANYAN 01,2019-093C,2026-06-12T06:22:23.042208,14.86509371,.00149615,97.7533,235.6173,101.3833,258.9064,0,U,44881,999,35068,.30201292E-4,.214E-5,0
RS-44 & BREEZE-KM R/B,2019-096E,2026-06-12T05:40:00.860448,12.79748788,.021797,82.5218,342.9956,155.7087,205.4479,0,U,44909,999,30171,.75545442E-4,.31E-6,0
SALSAT,2020-068K,2026-06-12T05:45:09.268704,15.29730151,.0008469,97.8848,166.0033,328.8216,31.2520,0,U,46495,999,31460,.28201772E-3,.8047E-4,0
XW-3 (CAS-9),2021-131B,2026-06-12T06:21:08.370144,14.41352915,.0005289,98.4974,255.6807,107.7226,252.4541,0,U,50466,999,23440,.13760694E-3,.401E-5,0
GREENCUBE (IO-117),2022-080E,2026-06-01T11:09:37.753056,6.42583280,.00088692,70.1435,303.7143,293.3663,66.6064,0,U,53109,999,9105,0,-.3E-7,0
UMKA 1 (RS40S),2023-091G,2026-06-12T02:14:23.222112,15.20758521,.00140434,97.5058,221.8099,133.5490,226.6915,0,U,57172,999,16323,.25026362E-3,.5454E-4,0
CUBESX-HSE 3 (RS42S),2023-091N,2026-06-12T06:32:18.471264,15.31092968,.00121255,97.5100,228.7976,109.7243,250.5307,0,U,57178,999,16367,.49860077E-3,.14944E-3,0
MONITOR-3 (RS58S),2023-091Q,2026-06-12T05:17:41.734752,15.27743950,.0013123,97.5092,226.6300,116.0548,244.2043,0,U,57180,999,16353,.41792364E-3,.11285E-3,0
MONITOR-4 (RS57S),2023-091S,2026-06-12T06:22:15.029472,15.27834414,.00131024,97.5086,226.6462,116.2107,244.0481,0,U,57182,999,16354,.41178117E-3,.11149E-3,0
MONITOR-2 (RS39S),2023-091U,2026-06-12T05:45:33.107328,15.18865801,.00125748,97.5079,221.5545,126.1672,234.0728,0,U,57184,999,16320,.26715191E-3,.5511E-4,0
SVYATOBOR 1 (RS60S),2023-091X,2026-06-12T05:00:39.387744,15.26531796,.00109089,97.5097,226.9981,109.2791,250.9628,0,U,57187,999,16355,.3745307E-3,.9731E-4,0
VIZARD-METEO (RS38S),2023-091Z,2026-06-12T06:16:33.852288,15.35872791,.00085459,97.5100,232.6478,92.3953,267.8269,0,U,57189,999,16393,.53390625E-3,.186E-3,0
POLYTECH-UNIVERSE 3 (RS46S),2023-091AB,2026-06-12T04:50:48.447168,15.19066591,.00165717,97.5055,221.0215,142.6851,217.5538,0,U,57191,999,16319,.2444489E-3,.5073E-4,0
UTMN 2 (RS27S),2023-091AP,2026-06-12T05:27:26.816544,15.31932153,.00094617,97.5096,230.3797,98.4428,261.7886,0,U,57203,999,16378,.44744946E-3,.13744E-3,0
